{
  "type": "FeatureCollection",
  "features": [
    {
      "type": "Feature",
      "properties": {
        "norad_id": 44231,
        "name": "BEIDOU-2 G8 (C01)",
        "group": "gnss",
        "lat": 0.6778416015796941,
        "lon": 97.45253377731683,
        "alt_km": 35804.36201231325,
        "timestamp": "2025-12-22T14:45:57.645519+00:00",
        "meta_object_name": "BEIDOU-2 G8 (C01)",
        "meta_object_id": "2019-027A",
        "meta_epoch": "2025-12-19T12:14:23.449632",
        "meta_mean_motion": 1.00276563,
        "meta_eccentricity": 0.0008196,
        "meta_inclination": 1.6785,
        "meta_ra_of_asc_node": 74.7229,
        "meta_arg_of_pericenter": 258.5641,
        "meta_mean_anomaly": 83.1013,
        "meta_ephemeris_type": 0,
        "meta_classification_type": "U",
        "meta_norad_cat_id": 44231,
        "meta_element_set_no": 999,
        "meta_rev_at_epoch": 2427,
        "meta_bstar": 0,
        "meta_mean_motion_dot": -2.24e-06,
        "meta_mean_motion_ddot": 0,
        "tle_line1": "1 44231U 19027A   25353.50999363 -.00000224  00000+0  00000+0 0  9992",
        "tle_line2": "2 44231   1.6785  74.7229 0008196 258.5641  83.1013  1.00276563 24270"
      },
      "geometry": {
        "type": "Point",
        "coordinates": [
          97.45253377731683,
          0.6778416015796941
        ]
      }
    },
    {
      "type": "Feature",
      "properties": {
        "norad_id": 44299,
        "name": "COSMOS 2534 (758)",
        "group": "gnss",
        "lat": 34.457638995665484,
        "lon": -142.1861517052949,
        "alt_km": 19135.209795105195,
        "timestamp": "2025-12-22T14:45:57.645531+00:00",
        "meta_object_name": "COSMOS 2534 (758)",
        "meta_object_id": "2019-030A",
        "meta_epoch": "2025-12-21T10:55:51.060576",
        "meta_mean_motion": 2.13102432,
        "meta_eccentricity": 0.00087289,
        "meta_inclination": 64.366,
        "meta_ra_of_asc_node": 198.5992,
        "meta_arg_of_pericenter": 284.1192,
        "meta_mean_anomaly": 304.9695,
        "meta_ephemeris_type": 0,
        "meta_classification_type": "U",
        "meta_norad_cat_id": 44299,
        "meta_element_set_no": 999,
        "meta_rev_at_epoch": 5113,
        "meta_bstar": 0,
        "meta_mean_motion_dot": 9.7e-07,
        "meta_mean_motion_ddot": 0,
        "tle_line1": "1 44299U 19030A   25355.45545209  .00000097  00000+0  00000+0 0  9999",
        "tle_line2": "2 44299  64.3660 198.5992 0008728 284.1192 304.9695  2.13102432 51134"
      },
      "geometry": {
        "type": "Point",
        "coordinates": [
          -142.1861517052949,
          34.457638995665484
        ]
      }
    },
    {
      "type": "Feature",
      "properties": {
        "norad_id": 44337,
        "name": "BEIDOU-3 IGSO-2 (C39)",
        "group": "gnss",
        "lat": -55.1116383396002,
        "lon": 74.49122086609337,
        "alt_km": 35739.167904848786,
        "timestamp": "2025-12-22T14:45:57.645542+00:00",
        "meta_object_name": "BEIDOU-3 IGSO-2 (C39)",
        "meta_object_id": "2019-035A",
        "meta_epoch": "2025-12-21T20:57:21.557952",
        "meta_mean_motion": 1.00268613,
        "meta_eccentricity": 0.00376698,
        "meta_inclination": 55.2286,
        "meta_ra_of_asc_node": 160.4211,
        "meta_arg_of_pericenter": 202.2744,
        "meta_mean_anomaly": 161.7127,
        "meta_ephemeris_type": 0,
        "meta_classification_type": "U",
        "meta_norad_cat_id": 44337,
        "meta_element_set_no": 999,
        "meta_rev_at_epoch": 2389,
        "meta_bstar": 0,
        "meta_mean_motion_dot": -7.4e-07,
        "meta_mean_motion_ddot": 0,
        "tle_line1": "1 44337U 19035A   25355.87316618 -.00000074  00000+0  00000+0 0  9999",
        "tle_line2": "2 44337  55.2286 160.4211 0037669 202.2744 161.7127  1.00268613 23892"
      },
      "geometry": {
        "type": "Point",
        "coordinates": [
          74.49122086609337,
          -55.1116383396002
        ]
      }
    },
    {
      "type": "Feature",
      "properties": {
        "norad_id": 44506,
        "name": "GPS BIII-2  (PRN 18)",
        "group": "gnss",
        "lat": -23.17190125391227,
        "lon": -38.824758689446504,
        "alt_km": 20288.952890844976,
        "timestamp": "2025-12-22T14:45:57.645555+00:00",
        "meta_object_name": "GPS BIII-2  (PRN 18)",
        "meta_object_id": "2019-056A",
        "meta_epoch": "2025-12-22T06:17:50.154720",
        "meta_mean_motion": 2.00566614,
        "meta_eccentricity": 0.00577398,
        "meta_inclination": 55.7181,
        "meta_ra_of_asc_node": 338.1752,
        "meta_arg_of_pericenter": 198.5765,
        "meta_mean_anomaly": 237.7097,
        "meta_ephemeris_type": 0,
        "meta_classification_type": "U",
        "meta_norad_cat_id": 44506,
        "meta_element_set_no": 999,
        "meta_rev_at_epoch": 4652,
        "meta_bstar": 0,
        "meta_mean_motion_dot": -6.8e-07,
        "meta_mean_motion_ddot": 0,
        "tle_line1": "1 44506U 19056A   25356.26238605 -.00000068  00000+0  00000+0 0  9996",
        "tle_line2": "2 44506  55.7181 338.1752 0057739 198.5765 237.7097  2.00566614 46521"
      },
      "geometry": {
        "type": "Point",
        "coordinates": [
          -38.824758689446504,
          -23.17190125391227
        ]
      }
    },
    {
      "type": "Feature",
      "properties": {
        "norad_id": 44542,
        "name": "BEIDOU-3 M24 (C46)",
        "group": "gnss",
        "lat": 16.819224472933218,
        "lon": -158.79847706718596,
        "alt_km": 21499.561526741607,
        "timestamp": "2025-12-22T14:45:57.645566+00:00",
        "meta_object_name": "BEIDOU-3 M24 (C46)",
        "meta_object_id": "2019-061A",
        "meta_epoch": "2025-12-20T23:21:37.865088",
        "meta_mean_motion": 1.86229471,
        "meta_eccentricity": 0.0009592,
        "meta_inclination": 54.4004,
        "meta_ra_of_asc_node": 188.7381,
        "meta_arg_of_pericenter": 25.7188,
        "meta_mean_anomaly": 334.3821,
        "meta_ephemeris_type": 0,
        "meta_classification_type": "U",
        "meta_norad_cat_id": 44542,
        "meta_element_set_no": 999,
        "meta_rev_at_epoch": 4247,
        "meta_bstar": 0,
        "meta_mean_motion_dot": 9.6e-07,
        "meta_mean_motion_ddot": 0,
        "tle_line1": "1 44542U 19061A   25354.97335492  .00000096  00000+0  00000+0 0  9990",
        "tle_line2": "2 44542  54.4004 188.7381 0009592  25.7188 334.3821  1.86229471 42471"
      },
      "geometry": {
        "type": "Point",
        "coordinates": [
          -158.79847706718596,
          16.819224472933218
        ]
      }
    },
    {
      "type": "Feature",
      "properties": {
        "norad_id": 44543,
        "name": "BEIDOU-3 M23 (C45)",
        "group": "gnss",
        "lat": -48.18383485855517,
        "lon": 135.4016860067002,
        "alt_km": 21534.5452958303,
        "timestamp": "2025-12-22T14:45:57.645579+00:00",
        "meta_object_name": "BEIDOU-3 M23 (C45)",
        "meta_object_id": "2019-061B",
        "meta_epoch": "2025-12-22T04:16:38.631360",
        "meta_mean_motion": 1.86227761,
        "meta_eccentricity": 0.00060882,
        "meta_inclination": 54.3995,
        "meta_ra_of_asc_node": 188.6659,
        "meta_arg_of_pericenter": 26.1092,
        "meta_mean_anomaly": 334.4978,
        "meta_ephemeris_type": 0,
        "meta_classification_type": "U",
        "meta_norad_cat_id": 44543,
        "meta_element_set_no": 999,
        "meta_rev_at_epoch": 4250,
        "meta_bstar": 0,
        "meta_mean_motion_dot": 9.4e-07,
        "meta_mean_motion_ddot": 0,
        "tle_line1": "1 44543U 19061B   25356.17822490  .00000094  00000+0  00000+0 0  9992",
        "tle_line2": "2 44543  54.3995 188.6659 0006088  26.1092 334.4978  1.86227761 42501"
      },
      "geometry": {
        "type": "Point",
        "coordinates": [
          135.4016860067002,
          -48.18383485855517
        ]
      }
    },
    {
      "type": "Feature",
      "properties": {
        "norad_id": 44624,
        "name": "EUTELSAT 5 WEST B (EGNOS/PRN 121)",
        "group": "gnss",
        "lat": -0.05247882652684042,
        "lon": -52.07520209627061,
        "alt_km": 35775.96857513256,
        "timestamp": "2025-12-22T14:45:57.645591+00:00",
        "meta_object_name": "EUTELSAT 5 WEST B (EGNOS/PRN 121)",
        "meta_object_id": "2019-067A",
        "meta_epoch": "2025-12-22T06:17:32.611200",
        "meta_mean_motion": 1.00271351,
        "meta_eccentricity": 0.00030366,
        "meta_inclination": 0.0656,
        "meta_ra_of_asc_node": 338.4706,
        "meta_arg_of_pericenter": 292.1222,
        "meta_mean_anomaly": 269.8665,
        "meta_ephemeris_type": 0,
        "meta_classification_type": "U",
        "meta_norad_cat_id": 44624,
        "meta_element_set_no": 999,
        "meta_rev_at_epoch": 2266,
        "meta_bstar": 0,
        "meta_mean_motion_dot": -2e-07,
        "meta_mean_motion_ddot": 0,
        "tle_line1": "1 44624U 19067A   25356.26218300 -.00000020  00000+0  00000+0 0  9997",
        "tle_line2": "2 44624   0.0656 338.4706 0003036 292.1222 269.8665  1.00271351 22660"
      },
      "geometry": {
        "type": "Point",
        "coordinates": [
          -52.07520209627061,
          -0.05247882652684042
        ]
      }
    }
  ]
}